IRIDIUM 144             
1 43249U 18030A   25089.78189329  .00000229  00000+0  74612-4 0  9991
2 43249  86.3925 115.8006 0002105  91.7060 268.4377 14.34216631366585
IRIDIUM 149             
1 43250U 18030B   25090.13707977  .00000235  00000+0  76988-4 0  9994
2 43250  86.3924 115.6241 0002128  94.4427 265.7012 14.34216938366651
IRIDIUM 157             
1 43251U 18030C   25090.08633955  .00000230  00000+0  75111-4 0  9995
2 43251  86.3927 115.6887 0002545  93.5317 266.6170 14.34217590366629
IRIDIUM 140             
1 43252U 18030D   25090.10536581  .00000240  00000+0  78704-4 0  9998
2 43252  86.3927 115.6947 0002102  90.7918 269.3519 14.34217526366684
IRIDIUM 145             
1 43253U 18030E   25090.09267822  .00000204  00000+0  65852-4 0  9996
2 43253  86.3925 115.6728 0001908  96.9809 263.1604 14.34217976366619
IRIDIUM 146             
1 43254U 18030F   25090.14341813  .00000129  00000+0  39133-4 0  9995
2 43254  86.3926 115.6655 0001890  96.5724 263.5686 14.34217250366633
IRIDIUM 148             
1 43255U 18030G   25089.62332595  .00000220  00000+0  71494-4 0  9992
2 43255  86.3927 115.9192 0002219  97.3659 262.7789 14.34217607366592
IRIDIUM 142             
1 43256U 18030H   25090.07999030  .00000145  00000+0  44582-4 0  9991
2 43256  86.3924 115.6333 0001884 100.7303 259.4105 14.34217199366621
